IRIDIUM 921             
1 24873U 97034E   25017.92620837  .00335093  00000+0  13925-2 0  9993
2 24873  86.3640 179.1725 0002815 328.9676  31.1436 15.84927425508549
IRIDIUM 26              
1 24903U 97043A   25017.92231134  .00000855  00000+0  28246-3 0  9993
2 24903  86.3996 173.6855 0001827  96.7449 263.3956 14.36917291435169
IRIDIUM 22              
1 24907U 97043E   25017.93825290  .00000795  00000+0  26836-3 0  9996
2 24907  86.3998 177.0840 0002037  92.4881 267.6549 14.35755884435212
DUMMY MASS 1            
1 24925U 97048A   25017.93605369  .00000816  00000+0  88597-4 0  9991
2 24925  86.3349 204.7304 0005512 338.5751  21.5242 14.86738190482807
DUMMY MASS 2            
1 24926U 97048B   25017.94055860  .00000794  00000+0  86686-4 0  9990
2 24926  86.3348 206.3074 0006742 348.8959  11.2116 14.86492195482582
IRIDIUM 29              
1 24944U 97051A   25017.94292583  .00000809  00000+0  27062-3 0  9998
2 24944  86.3960 206.8450 0002140  85.7977 274.3464 14.36222281431708
IRIDIUM 33              
1 24946U 97051C   25017.90269256  .00000531  00000+0  18080-3 0  9999
2 24946  86.3876 206.1112 0007129 194.4847 165.6146 14.34725268431193
IRIDIUM 28              
1 24948U 97051E   25017.94411018  .00000720  00000+0  23559-3 0  9997
2 24948  86.3969 204.4470 0001789 101.8560 258.2838 14.37163336432267
